TIANMU-1 07             
1 57399U 23101A   26065.57454230  .00008352  00000+0  29795-3 0  9991
2 57399  97.2728 118.5929 0004609 142.4105 217.7458 15.29118809145964
STARLINK-32536          
1 61925U 24207P   26068.93435982  .00027970  00000+0  10205-2 0  9997
2 61925  43.0003 284.3214 0001924 274.1329  85.9303 15.27629720 74711
